{"type": "FeatureCollection", "features": [ {"type": "Feature", "properties": {"norad_id": 30146, "name": "FENGYUN 1C DEB", "group": "fengyun-1c-debris", "lat": -61.06426733347705, "lon": 160.77696513323065, "alt_km": 1077.8204045454358, "timestamp": "2025-12-12T07:43:20.787616+00:00", "meta": {"OBJECT_NAME": "FENGYUN 1C DEB", "OBJECT_ID": "1999-025TB", "EPOCH": "2025-12-11T09:39:25.617312", "MEAN_MOTION": 13.86596973, "ECCENTRICITY": 0.01787828, "INCLINATION": 98.0199, "RA_OF_ASC_NODE": 145.2136, "ARG_OF_PERICENTER": 126.5805, "MEAN_ANOMALY": 264.3467, "EPHEMERIS_TYPE": 0, "CLASSIFICATION_TYPE": "U", "NORAD_CAT_ID": 30146, "ELEMENT_SET_NO": 999, "REV_AT_EPOCH": 95399, "BSTAR": 0.0010056658, "MEAN_MOTION_DOT": 1.292e-05, "MEAN_MOTION_DDOT": 0}, "tle": {"line1": "1 30146U 99025TB  25345.40237983  .00001292  00000+0  10057-2 0  9992", "line2": "2 30146  98.0199 145.2136 0178782 126.5805 264.3467 13.86596973953998"}}, "geometry": {"type": "Point", "coordinates": [160.77696513323065, -61.06426733347705]}}, {"type": "Feature", "properties": {"norad_id": 30148, "name": "FENGYUN 1C DEB", "group": "fengyun-1c-debris", "lat": -38.06986190932755, "lon": 143.18972507096413, "alt_km": 993.9793276680839, "timestamp": "2025-12-12T07:43:20.787626+00:00", "meta": {"OBJECT_NAME": "FENGYUN 1C DEB", "OBJECT_ID": "1999-025TD", "EPOCH": "2025-12-11T23:52:28.104672", "MEAN_MOTION": 13.88485632, "ECCENTRICITY": 0.01349656, "INCLINATION": 99.5448, "RA_OF_ASC_NODE": 135.2826, "ARG_OF_PERICENTER": 198.6394, "MEAN_ANOMALY": 287.8096, "EPHEMERIS_TYPE": 0, "CLASSIFICATION_TYPE": "U", "NORAD_CAT_ID": 30148, "ELEMENT_SET_NO": 999, "REV_AT_EPOCH": 95506, "BSTAR": 0.0013564622, "MEAN_MOTION_DOT": 1.705e-05, "MEAN_MOTION_DDOT": 0}, "tle": {"line1": "1 30148U 99025TD  25345.99476973  .00001705  00000+0  13565-2 0  9998", "line2": "2 30148  99.5448 135.2826 0134965 198.6394 287.8096 13.88485632955065"}}, "geometry": {"type": "Point", "coordinates": [143.18972507096413, -38.06986190932755]}}, {"type": "Feature", "properties": {"norad_id": 30150, "name": "FENGYUN 1C DEB", "group": "fengyun-1c-debris", "lat": 75.59619379580496, "lon": -19.597526318587622, "alt_km": 992.2510073319618, "timestamp": "2025-12-12T07:43:20.787637+00:00", "meta": {"OBJECT_NAME": "FENGYUN 1C DEB", "OBJECT_ID": "1999-025TF", "EPOCH": "2025-12-11T08:59:34.533600", "MEAN_MOTION": 13.86591601, "ECCENTRICITY": 0.01465398, "INCLINATION": 98.9942, "RA_OF_ASC_NODE": 121.4183, "ARG_OF_PERICENTER": 339.8507, "MEAN_ANOMALY": 75.0945, "EPHEMERIS_TYPE": 0, "CLASSIFICATION_TYPE": "U", "NORAD_CAT_ID": 30150, "ELEMENT_SET_NO": 999, "REV_AT_EPOCH": 95439, "BSTAR": 0.00073694265, "MEAN_MOTION_DOT": 8.89e-06, "MEAN_MOTION_DDOT": 0}, "tle": {"line1": "1 30150U 99025TF  25345.37470525  .00000889  00000+0  73694-3 0  9992", "line2": "2 30150  98.9942 121.4183 0146539 339.8507  75.0945 13.86591601954395"}}, "geometry": {"type": "Point", "coordinates": [-19.597526318587622, 75.59619379580496]}}, {"type": "Feature", "properties": {"norad_id": 30151, "name": "FENGYUN 1C DEB", "group": "fengyun-1c-debris", "lat": -79.45088515367597, "lon": 115.31891565098188, "alt_km": 839.9316530243268, "timestamp": "2025-12-12T07:43:20.787647+00:00", "meta": {"OBJECT_NAME": "FENGYUN 1C DEB", "OBJECT_ID": "1999-025TG", "EPOCH": "2025-12-11T23:48:46.154304", "MEAN_MOTION": 13.84471317, "ECCENTRICITY": 0.01631847, "INCLINATION": 99.0633, "RA_OF_ASC_NODE": 353.994, "ARG_OF_PERICENTER": 280.799, "MEAN_ANOMALY": 142.5551, "EPHEMERIS_TYPE": 0, "CLASSIFICATION_TYPE": "U", "NORAD_CAT_ID": 30151, "ELEMENT_SET_NO": 999, "REV_AT_EPOCH": 95235, "BSTAR": 0.00089149219, "MEAN_MOTION_DOT": 1.064e-05, "MEAN_MOTION_DDOT": 0}, "tle": {"line1": "1 30151U 99025TG  25345.99220086  .00001064  00000+0  89149-3 0  9994", "line2": "2 30151  99.0633 353.9940 0163184 280.7990 142.5551 13.84471317952359"}}, "geometry": {"type": "Point", "coordinates": [115.31891565098188, -79.45088515367597]}}, {"type": "Feature", "properties": {"norad_id": 30152, "name": "FENGYUN 1C DEB", "group": "fengyun-1c-debris", "lat": 7.156503592923698, "lon": -157.07310556813198, "alt_km": 883.2424834267249, "timestamp": "2025-12-12T07:43:20.787658+00:00", "meta": {"OBJECT_NAME": "FENGYUN 1C DEB", "OBJECT_ID": "1999-025TH", "EPOCH": "2025-12-11T00:44:25.752768", "MEAN_MOTION": 13.96666039, "ECCENTRICITY": 0.01616827, "INCLINATION": 99.0802, "RA_OF_ASC_NODE": 202.803, "ARG_OF_PERICENTER": 90.0663, "MEAN_ANOMALY": 271.9026, "EPHEMERIS_TYPE": 0, "CLASSIFICATION_TYPE": "U", "NORAD_CAT_ID": 30152, "ELEMENT_SET_NO": 999, "REV_AT_EPOCH": 95354, "BSTAR": 0.0033839127, "MEAN_MOTION_DOT": 5.198e-05, "MEAN_MOTION_DDOT": 0}, "tle": {"line1": "1 30152U 99025TH  25345.03085362  .00005198  00000+0  33839-2 0  9992", "line2": "2 30152  99.0802 202.8030 0161682  90.0663 271.9026 13.96666039953546"}}, "geometry": {"type": "Point", "coordinates": [-157.07310556813198, 7.156503592923698]}}, {"type": "Feature", "properties": {"norad_id": 30153, "name": "FENGYUN 1C DEB", "group": "fengyun-1c-debris", "lat": 32.174692374031366, "lon": -30.01615812219559, "alt_km": 833.3737065357809, "timestamp": "2025-12-12T07:43:20.787668+00:00", "meta": {"OBJECT_NAME": "FENGYUN 1C DEB", "OBJECT_ID": "1999-025TJ", "EPOCH": "2025-12-11T23:07:23.445120", "MEAN_MOTION": 13.78766594, "ECCENTRICITY": 0.02006807, "INCLINATION": 100.467, "RA_OF_ASC_NODE": 336.267, "ARG_OF_PERICENTER": 7.5717, "MEAN_ANOMALY": 46.7582, "EPHEMERIS_TYPE": 0, "CLASSIFICATION_TYPE": "U", "NORAD_CAT_ID": 30153, "ELEMENT_SET_NO": 999, "REV_AT_EPOCH": 94764, "BSTAR": 0.0018677613, "MEAN_MOTION_DOT": 2.155e-05, "MEAN_MOTION_DDOT": 0}, "tle": {"line1": "1 30153U 99025TJ  25345.96346580  .00002155  00000+0  18678-2 0  9991", "line2": "2 30153 100.4670 336.2670 0200680   7.5717  46.7582 13.78766594947640"}}, "geometry": {"type": "Point", "coordinates": [-30.01615812219559, 32.174692374031366]}}, {"type": "Feature", "properties": {"norad_id": 30154, "name": "FENGYUN 1C DEB", "group": "fengyun-1c-debris", "lat": -81.11837409026354, "lon": 100.17949896819017, "alt_km": 908.4455637193169, "timestamp": "2025-12-12T07:43:20.787679+00:00", "meta": {"OBJECT_NAME": "FENGYUN 1C DEB", "OBJECT_ID": "1999-025TK", "EPOCH": "2025-12-11T13:51:52.475616", "MEAN_MOTION": 13.85981717, "ECCENTRICITY": 0.01829017, "INCLINATION": 98.4497, "RA_OF_ASC_NODE": 27.4764, "ARG_OF_PERICENTER": 201.8867, "MEAN_ANOMALY": 318.2894, "EPHEMERIS_TYPE": 0, "CLASSIFICATION_TYPE": "U", "NORAD_CAT_ID": 30154, "ELEMENT_SET_NO": 999, "REV_AT_EPOCH": 94968, "BSTAR": 0.0022765624, "MEAN_MOTION_DOT": 2.947e-05, "MEAN_MOTION_DDOT": 0}, "tle": {"line1": "1 30154U 99025TK  25345.57769069  .00002947  00000+0  22766-2 0  9992", "line2": "2 30154  98.4497  27.4764 0182901 201.8867 318.2894 13.85981717949680"}}, "geometry": {"type": "Point", "coordinates": [100.17949896819017, -81.11837409026354]}}, {"type": "Feature", "properties": {"norad_id": 30155, "name": "FENGYUN 1C DEB", "group": "fengyun-1c-debris", "lat": 30.782524193451813, "lon": -114.28247860403188, "alt_km": 1154.770796970125, "timestamp": "2025-12-12T07:43:20.787689+00:00", "meta": {"OBJECT_NAME": "FENGYUN 1C DEB", "OBJECT_ID": "1999-025TL", "EPOCH": "2025-12-11T20:30:52.809696", "MEAN_MOTION": 13.73795912, "ECCENTRICITY": 0.02418058, "INCLINATION": 99.7514, "RA_OF_ASC_NODE": 59.3615, "ARG_OF_PERICENTER": 346.1204, "MEAN_ANOMALY": 13.3375, "EPHEMERIS_TYPE": 0, "CLASSIFICATION_TYPE": "U", "NORAD_CAT_ID": 30155, "ELEMENT_SET_NO": 999, "REV_AT_EPOCH": 93852, "BSTAR": 0.0025099258, "MEAN_MOTION_DOT": 2.853e-05, "MEAN_MOTION_DDOT": 0}, "tle": {"line1": "1 30155U 99025TL  25345.85477789  .00002853  00000+0  25099-2 0  9997", "line2": "2 30155  99.7514  59.3615 0241805 346.1204  13.3375 13.73795912938526"}}, "geometry": {"type": "Point", "coordinates": [-114.28247860403188, 30.782524193451813]}}, {"type": "Feature", "properties": {"norad_id": 30156, "name": "FENGYUN 1C DEB", "group": "fengyun-1c-debris", "lat": 32.40897364117873, "lon": -52.37716463958804, "alt_km": 1049.1494528818948, "timestamp": "2025-12-12T07:43:20.787700+00:00", "meta": {"OBJECT_NAME": "FENGYUN 1C DEB", "OBJECT_ID": "1999-025TM", "EPOCH": "2025-12-11T21:24:04.042944", "MEAN_MOTION": 13.80808363, "ECCENTRICITY": 0.01994086, "INCLINATION": 98.9188, "RA_OF_ASC_NODE": 312.9378, "ARG_OF_PERICENTER": 265.1874, "MEAN_ANOMALY": 149.3528, "EPHEMERIS_TYPE": 0, "CLASSIFICATION_TYPE": "U", "NORAD_CAT_ID": 30156, "ELEMENT_SET_NO": 999, "REV_AT_EPOCH": 94679, "BSTAR": 0.0022279292, "MEAN_MOTION_DOT": 2.684e-05, "MEAN_MOTION_DDOT": 0}, "tle": {"line1": "1 30156U 99025TM  25345.89171346  .00002684  00000+0  22279-2 0  9991", "line2": "2 30156  98.9188 312.9378 0199408 265.1874 149.3528 13.80808363946794"}}, "geometry": {"type": "Point", "coordinates": [-52.37716463958804, 32.40897364117873]}}, {"type": "Feature", "properties": {"norad_id": 30157, "name": "FENGYUN 1C DEB", "group": "fengyun-1c-debris", "lat": -31.64656758549067, "lon": -102.08040878784035, "alt_km": 722.5627050521571, "timestamp": "2025-12-12T07:43:20.787710+00:00", "meta": {"OBJECT_NAME": "FENGYUN 1C DEB", "OBJECT_ID": "1999-025TN", "EPOCH": "2025-12-11T18:10:10.308864", "MEAN_MOTION": 14.45076498, "ECCENTRICITY": 0.00370671, "INCLINATION": 98.7143, "RA_OF_ASC_NODE": 82.7647, "ARG_OF_PERICENTER": 196.2257, "MEAN_ANOMALY": 319.5325, "EPHEMERIS_TYPE": 0, "CLASSIFICATION_TYPE": "U", "NORAD_CAT_ID": 30157, "ELEMENT_SET_NO": 999, "REV_AT_EPOCH": 98058, "BSTAR": 0.003491486, "MEAN_MOTION_DOT": 0.00012279, "MEAN_MOTION_DDOT": 0}, "tle": {"line1": "1 30157U 99025TN  25345.75706376  .00012279  00000+0  34915-2 0  9995", "line2": "2 30157  98.7143  82.7647 0037067 196.2257 319.5325 14.45076498980585"}}, "geometry": {"type": "Point", "coordinates": [-102.08040878784035, -31.64656758549067]}}]}